$$SOE
2460147.500000000, A.D. 2023-Jul-22 00:00:00.0000, -2.003107458704965E+08, -3.641605176046582E+08, -7.700825595621885E+07,
2460154.500000000, A.D. 2023-Jul-29 00:00:00.0000, -1.907855402371649E+08, -3.700790258499497E+08, -7.696729818027253E+07,
2460161.500000000, A.D. 2023-Aug-05 00:00:00.0000, -1.811383819394201E+08, -3.757608921174701E+08, -7.687711907620509E+07,
2460168.500000000, A.D. 2023-Aug-12 00:00:00.0000, -1.713760557158158E+08, -3.812037570952086E+08, -7.673803650548629E+07,
2460175.500000000, A.D. 2023-Aug-19 00:00:00.0000, -1.615053677491300E+08, -3.864054832510405E+08, -7.655040504835701E+07,
2460182.500000000, A.D. 2023-Aug-26 00:00:00.0000, -1.515331369699656E+08, -3.913641530749196E+08, -7.631461485885416E+07,
2460189.500000000, A.D. 2023-Sep-02 00:00:00.0000, -1.414661866115849E+08, -3.960780670083030E+08, -7.603109048781548E+07,
2460196.500000000, A.D. 2023-Sep-09 00:00:00.0000, -1.313113359967099E+08, -4.005457411230656E+08, -7.570028968561496E+07,
2460203.500000000, A.D. 2023-Sep-16 00:00:00.0000, -1.210753924037472E+08, -4.047659046295130E+08, -7.532270220969468E+07,
2460210.500000000, A.D. 2023-Sep-23 00:00:00.0000, -1.107651426100978E+08, -4.087374969486150E+08, -7.489884865632647E+07,
2460217.500000000, A.D. 2023-Sep-30 00:00:00.0000, -1.003873444643493E+08, -4.124596631796358E+08, -7.442927919255221E+07,
2460224.500000000, A.D. 2023-Oct-07 00:00:00.0000, -8.994872085107966E+07, -4.159317485273125E+08, -7.391457202082565E+07,
2460231.500000000, A.D. 2023-Oct-14 00:00:00.0000, -7.945595501581539E+07, -4.191532950234526E+08, -7.335533194652727E+07,
2460238.500000000, A.D. 2023-Oct-21 00:00:00.0000, -6.891568402769728E+07, -4.221240389637138E+08, -7.275218921785831E+07,
2460245.500000000, A.D. 2023-Oct-28 00:00:00.0000, -5.833449180971890E+07, -4.248439068229213E+08, -7.210579832684195E+07,
2460252.500000000, A.D. 2023-Nov-04 00:00:00.0000, -4.771890299058010E+07, -4.273130104414595E+08, -7.141683672325960E+07,
2460259.500000000, A.D. 2023-Nov-11 00:00:00.0000, -3.707537740287988E+07, -4.295316421038439E+08, -7.068600350999665E+07,
2460266.500000000, A.D. 2023-Nov-18 00:00:00.0000, -2.641030500881460E+07, -4.315002695942615E+08, -6.991401814808720E+07,
2460273.500000000, A.D. 2023-Nov-25 00:00:00.0000, -1.573000117949104E+07, -4.332195312263787E+08, -6.910161917904657E+07,
2460280.500000000, A.D. 2023-Dec-02 00:00:00.0000, -5.040702297035325E+06, -4.346902308783366E+08, -6.824956297075617E+07,
2460287.500000000, A.D. 2023-Dec-09 00:00:00.0000, 5.651438401948848E+06, -4.359133331115739E+08, -6.735862250162804E+07,
2460294.500000000, A.D. 2023-Dec-16 00:00:00.0000, 1.634035503332419E+07, -4.368899583801631E+08, -6.642958621100646E+07,
2460301.500000000, A.D. 2023-Dec-23 00:00:00.0000, 2.702007367604848E+07, -4.376213776614386E+08, -6.546325689391974E+07,
2460308.500000000, A.D. 2023-Dec-30 00:00:00.0000, 3.768471605182063E+07, -4.381090054753008E+08, -6.446045043349236E+07,
2460315.500000000, A.D. 2024-Jan-06 00:00:00.0000, 4.832850050804622E+07, -4.383543936674998E+08, -6.342199440303192E+07,
2460322.500000000, A.D. 2024-Jan-13 00:00:00.0000, 5.894574348530082E+07, -4.383592277778674E+08, -6.234872697820273E+07,
2460329.500000000, A.D. 2024-Jan-20 00:00:00.0000, 6.953086270188941E+07, -4.381253229238722E+08, -6.124149602133474E+07,
2460336.500000000, A.D. 2024-Jan-27 00:00:00.0000, 8.007838003560506E+07, -4.376546185615602E+08, -6.010115810011619E+07,
2460343.500000000, A.D. 2024-Feb-03 00:00:00.0000, 9.058292368339777E+07, -4.369491730852551E+08, -5.892857748017433E+07,
2460350.500000000, A.D. 2024-Feb-10 00:00:00.0000, 1.010392298856574E+08, -4.360111585688141E+08, -5.772462514179149E+07,
2460357.500000000, A.D. 2024-Feb-17 00:00:00.0000, 1.114421443631133E+08, -4.348428556510814E+08, -5.649017783355245E+07,
2460364.500000000, A.D. 2024-Feb-24 00:00:00.0000, 1.217866235115008E+08, -4.334466485598350E+08, -5.522611716539326E+07,
2460371.500000000, A.D. 2024-Mar-02 00:00:00.0000, 1.320677353927910E+08, -4.318250203142452E+08, -5.393332874647671E+07,
2460378.500000000, A.D. 2024-Mar-09 00:00:00.0000, 1.422806606717974E+08, -4.299805481750298E+08, -5.261270138566515E+07,
2460385.500000000, A.D. 2024-Mar-16 00:00:00.0000, 1.524206939041533E+08, -4.279158991507726E+08, -5.126512637459061E+07,
2460392.500000000, A.D. 2024-Mar-23 00:00:00.0000, 1.624832450833325E+08, -4.256338244569946E+08, -4.989149675316346E+07,
2460399.500000000, A.D. 2024-Mar-30 00:00:00.0000, 1.724638392168292E+08, -4.231371529602084E+08, -4.849270635420641E+07,
2460406.500000000, A.D. 2024-Apr-06 00:00:00.0000, 1.823581141985806E+08, -4.204287869792885E+08, -4.706964892595676E+07,
2460413.500000000, A.D. 2024-Apr-13 00:00:00.0000, 1.921618205398613E+08, -4.175116996127323E+08, -4.562321758982429E+07,
2460420.500000000, A.D. 2024-Apr-20 00:00:00.0000, 2.018708220167678E+08, -4.143889309206018E+08, -4.415430432713014E+07,
2460427.500000000, A.D. 2024-Apr-27 00:00:00.0000, 2.114810957264153E+08, -4.110635835265825E+08, -4.266379940095139E+07,
2460434.500000000, A.D. 2024-May-04 00:00:00.0000, 2.209887316485351E+08, -4.075388183458079E+08, -4.115259077775255E+07,
2460441.500000000, A.D. 2024-May-11 00:00:00.0000, 2.303899319595710E+08, -4.038178505414023E+08, -3.962156357801172E+07,
2460448.500000000, A.D. 2024-May-18 00:00:00.0000, 2.396810101898626E+08, -3.999039456885458E+08, -3.807159956057096E+07,
2460455.500000000, A.D. 2024-May-25 00:00:00.0000, 2.488583902569732E+08, -3.958004161528858E+08, -3.650357664249414E+07,
2460462.500000000, A.D. 2024-Jun-01 00:00:00.0000, 2.579186054433261E+08, -3.915106177397578E+08, -3.491836846354225E+07,
2460469.500000000, A.D. 2024-Jun-08 00:00:00.0000, 2.668582975731574E+08, -3.870379466361173E+08, -3.331684401868361E+07,
2460476.500000000, A.D. 2024-Jun-15 00:00:00.0000, 2.756742167970369E+08, -3.823858360997330E+08, -3.169986734968293E+07,
2460483.500000000, A.D. 2024-Jun-22 00:00:00.0000, 2.843632209866413E+08, -3.775577517206711E+08, -3.006829710640337E+07,
2460490.500000000, A.D. 2024-Jun-29 00:00:00.0000, 2.929222726245485E+08, -3.725571870750397E+08, -2.842298593080322E+07,
2460497.500000000, A.D. 2024-Jul-06 00:00:00.0000, 3.013484358399425E+08, -3.673876622394883E+08, -2.676478010698612E+07,
2460504.500000000, A.D. 2024-Jul-13 00:00:00.0000, 3.096388755461965E+08, -3.620527223399314E+08, -2.509451942424101E+07,
2460511.500000000, A.D. 2024-Jul-20 00:00:00.0000, 3.177908567012584E+08, -3.565559349843148E+08, -2.341303697606663E+07,
2460518.500000000, A.D. 2024-Jul-27 00:00:00.0000, 3.258017430405334E+08, -3.509008875371291E+08, -2.172115891244665E+07,
2460525.500000000, A.D. 2024-Aug-03 00:00:00.0000, 3.336689955603406E+08, -3.450911846081975E+08, -2.001970420014054E+07,
2460532.500000000, A.D. 2024-Aug-10 00:00:00.0000, 3.413901709226003E+08, -3.391304457572902E+08, -1.830948440574138E+07,
2460539.500000000, A.D. 2024-Aug-17 00:00:00.0000, 3.489629198327751E+08, -3.330223033896133E+08, -1.659130350334531E+07,
2460546.500000000, A.D. 2024-Aug-24 00:00:00.0000, 3.563849854233547E+08, -3.267704008609168E+08, -1.486595771060392E+07,
2460553.500000000, A.D. 2024-Aug-31 00:00:00.0000, 3.636542017628691E+08, -3.203783908498712E+08, -1.313423536828738E+07,
2460560.500000000, A.D. 2024-Sep-07 00:00:00.0000, 3.707684928607237E+08, -3.138499338675132E+08, -1.139691688610291E+07,
2460567.500000000, A.D. 2024-Sep-14 00:00:00.0000, 3.777258722585160E+08, -3.071886959050892E+08, -9.654774680679366E+06,
2460574.500000000, A.D. 2024-Sep-21 00:00:00.0000, 3.845244411838436E+08, -3.003983448062211E+08, -7.908572885293007E+06,
2460581.500000000, A.D. 2024-Sep-28 00:00:00.0000, 3.911623847819791E+08, -2.934825485890112E+08, -6.159067049775630E+06,
2460588.500000000, A.D. 2024-Oct-05 00:00:00.0000, 3.976379700973600E+08, -2.864449757128129E+08, -4.407004166468590E+06,
2460595.500000000, A.D. 2024-Oct-12 00:00:00.0000, 4.039495454475003E+08, -2.792892943062317E+08, -2.653122744919747E+06,
2460602.500000000, A.D. 2024-Oct-19 00:00:00.0000, 4.100955394416526E+08, -2.720191706246571E+08, -8.981527960777581E+05,
2460609.500000000, A.D. 2024-Oct-26 00:00:00.0000, 4.160744596143776E+08, -2.646382675362462E+08, 8.571842122944295E+05,
2460616.500000000, A.D. 2024-Nov-02 00:00:00.0000, 4.218848909332584E+08, -2.571502431820462E+08, 2.612175394042775E+06,
2460623.500000000, A.D. 2024-Nov-09 00:00:00.0000, 4.275254942786440E+08, -2.495587497865596E+08, 4.366116470447198E+06,
2460630.500000000, A.D. 2024-Nov-16 00:00:00.0000, 4.329950049221193E+08, -2.418674326150405E+08, 6.118311781730384E+06,
2460637.500000000, A.D. 2024-Nov-23 00:00:00.0000, 4.382922310512621E+08, -2.340799291234179E+08, 7.868074276380464E+06,
2460644.500000000, A.D. 2024-Nov-30 00:00:00.0000, 4.434160525499519E+08, -2.261998683390011E+08, 9.614725456124678E+06,
2460651.500000000, A.D. 2024-Dec-07 00:00:00.0000, 4.483654204558094E+08, -2.182308700468603E+08, 1.135759527296993E+07,
2460658.500000000, A.D. 2024-Dec-14 00:00:00.0000, 4.531393564098384E+08, -2.101765425548073E+08, 1.309602214230435E+07,
2460665.500000000, A.D. 2024-Dec-21 00:00:00.0000, 4.577369497831116E+08, -2.020404802767316E+08, 1.482935318428879E+07,
2460672.500000000, A.D. 2024-Dec-28 00:00:00.0000, 4.621573544537947E+08, -1.938262641005398E+08, 1.655694427085597E+07,
2460679.500000000, A.D. 2025-Jan-04 00:00:00.0000, 4.663997878315758E+08, -1.855374621619047E+08, 1.827815983489460E+07,
2460686.500000000, A.D. 2025-Jan-11 00:00:00.0000, 4.704635303089442E+08, -1.771776293613059E+08, 1.999237274502663E+07,
2460693.500000000, A.D. 2025-Jan-18 00:00:00.0000, 4.743479242232252E+08, -1.687503065408616E+08, 2.169896425572951E+07,
2460700.500000000, A.D. 2025-Jan-25 00:00:00.0000, 4.780523725734348E+08, -1.602590197931843E+08, 2.339732397237123E+07,
2460707.500000000, A.D. 2025-Feb-01 00:00:00.0000, 4.815763376819505E+08, -1.517072799300384E+08, 2.508684981196605E+07,
$$EOE